{
  "norad_id": 43707,
  "name": "BEIDOU-3 M18",
  "history": [
    {
      "epoch": "2026-03-26T11:33:32.951232",
      "apogee_km": 21546.19315677047,
      "perigee_km": 21510.829851785846,
      "latitude_deg": 42.70637051899844,
      "longitude_deg": -155.06338752014562,
      "semi_major_axis_km": 27906.648504278157,
      "eccentricity": 0.0006336,
      "inclination_deg": 54.17,
      "raan_deg": 185.0943,
      "arg_perigee_deg": 332.676,
      "mean_anomaly_deg": 27.2992,
      "mean_motion_rev_day": 1.86226396
    }
  ]
}